STARLETTE               
1 07646U 75010A   23220.82605969 -.00000123  00000+0  14159-4 0  9990
2 07646  49.8232 262.8491 0205759 216.3505 142.3262 13.82320584450190
LAGEOS 1                
1 08820U 76039A   23219.13372132  .00000003  00000+0  00000+0 0  9993
2 08820 109.8070 181.3691 0044883 166.6267 174.5906  6.38664687846807
AJISAI (EGS)            
1 16908U 86061A   23221.20913433 -.00000094  00000+0  21452-4 0  9991
2 16908  50.0091 114.4907 0011479  45.6376 136.2297 12.44501369350867
COSMOS 1989 (ETALON 1)  
1 19751U 89001C   23220.60866067 -.00000042  00000+0  00000+0 0  9994
2 19751  64.4253 108.0292 0023977 214.7483 309.5332  2.13156239269192
COSMOS 2024 (ETALON 2)  
1 20026U 89039C   23221.42336567 -.00000093  00000+0  00000+0 0  9996
2 20026  65.4550 346.2069 0018953 217.9942 191.2093  2.13204341266264
LAGEOS 2                
1 22195U 92070B   23219.58241534 -.00000009  00000+0  00000+0 0  9994
2 22195  52.6358 206.8178 0138820  90.4088  24.3418  6.47294267727996
STELLA                  
1 22824U 93061B   23220.77326487 -.00000037  00000+0  39411-5 0  9993
2 22824  98.9254 256.3745 0006954  35.3483 104.5007 14.27407859556076
LARES                   
1 38077U 12006A   23221.38737482 -.00000042  00000+0 -20595-4 0  9998
2 38077  69.4899 273.4394 0011133 298.3457  61.6447 12.54931369526331
